[{"OBJECT_NAME":"STARLINK-30929","OBJECT_ID":"2023-178N","EPOCH":"2026-03-09T02:16:37.117056","MEAN_MOTION":15.3019066,"ECCENTRICITY":9.844e-5,"INCLINATION":53.1622,"RA_OF_ASC_NODE":4.1069,"ARG_OF_PERICENTER":85.6529,"MEAN_ANOMALY":274.4584,"EPHEMERIS_TYPE":0,"CLASSIFICATION_TYPE":"U","NORAD_CAT_ID":58386,"ELEMENT_SET_NO":999,"REV_AT_EPOCH":12977,"BSTAR":6.4589605e-5,"MEAN_MOTION_DOT":1.554e-5,"MEAN_MOTION_DDOT":0},{"OBJECT_NAME":"LYNK TOWER 5","OBJECT_ID":"2024-043Z","EPOCH":"2026-03-09T22:11:51.175104","MEAN_MOTION":15.29454506,"ECCENTRICITY":0.00104056,"INCLINATION":97.5458,"RA_OF_ASC_NODE":204.7305,"ARG_OF_PERICENTER":234.6422,"MEAN_ANOMALY":125.3846,"EPHEMERIS_TYPE":0,"CLASSIFICATION_TYPE":"U","NORAD_CAT_ID":59121,"ELEMENT_SET_NO":999,"REV_AT_EPOCH":11186,"BSTAR":0.00031901545,"MEAN_MOTION_DOT":9.048e-5,"MEAN_MOTION_DDOT":0}]
